IRIDIUM 36              
1 24967U 97056C   24192.38333689  .00000667  00000+0  21922-3 0  9993
2 24967  86.3982 316.5538 0002270  90.0536 270.0922 14.36881755403121
IRIDIUM 42              
1 25077U 97077A   24192.53363309  .00000532  00000+0  17795-3 0  9992
2 25077  86.3961  22.5982 0002422 103.0812 257.0655 14.35621554392166
IRIDIUM 44              
1 25078U 97077B   24192.43186092  .00000614  00000+0  19076-3 0  9999
2 25078  86.3965   5.4873 0003930  81.2649 278.8995 14.39467587394528
IRIDIUM 45              
1 25104U 97082A   24192.50953302  .00012128  00000+0  66093-3 0  9993
2 25104  86.3720 211.2969 0159005 153.5373 207.4096 15.03959519400365
IRIDIUM 24              
1 25105U 97082B   24192.49135899  .00000595  00000+0  17797-3 0  9997
2 25105  86.3907 225.0074 0013499 121.2825 238.9698 14.41253642393984
IRIDIUM 51              
1 25262U 98018A   24192.34612348  .00017543  00000+0  77956-3 0  9998
2 25262  86.3953 221.1217 0145227  97.6787 264.0972 15.12301632394914
